TYVAK-182A              
1 48271U 21034D   26140.95632139  .00003355  00000+0  23509-3 0  9990
2 48271  97.5739 200.3502 0007601  72.3512 287.8545 15.05876156275737
CSS (TIANHE)            
1 48274U 21035A   26140.83756287  .00011714  00000+0  14070-3 0  9993
2 48274  41.4676 128.3095 0007408 269.1173  90.8817 15.60706340288891
TYVAK-0130              
1 48606U 21041BF  26140.30055759  .00004328  00000+0  17318-3 0  9998
2 48606  52.9946 155.5509 0011443  81.5372 278.6922 15.27141551276126
HAIYANG-2D              
1 48621U 21043A   26140.96506500 -.00000211  00000+0 -11749-3 0  9995
2 48621  66.0002  12.4752 0011380 272.3250  87.6515 13.83372728252782
2021-050D               
1 48843U 21050D   26140.94115618  .00002982  00000+0  12967-3 0  9991
2 48843  97.3338 217.6020 0005727  18.6938 341.4508 15.23021635274811
TYVAK-0173              
1 48892U 21059P   26140.51179911  .00001091  00000+0  14213-3 0  9999
2 48892  96.0086 223.7487 0010902 118.8522 241.3792 14.81783987264145
MANDRAKE 2 ABLE         
1 48907U 21059AE  26140.49223399  .00015822  00000+0  24806-3 0  9999
2 48907  97.7044 328.1899 0006272  95.5013 264.6956 15.53776475272820
MANDRAKE 2 BAKER        
1 48908U 21059AF  26140.30964727  .00020365  00000+0  27259-3 0  9990
2 48908  97.7017 330.6776 0004878  95.5596 264.6216 15.58037691272957
PACE-1                  
1 48909U 21059AG  26140.81432582  .00056239  00000+0  37364-3 0  9993
2 48909  97.6789 335.9666 0002448  81.4165 278.7376 15.75299746273488
YAM-3                   
1 48915U 21059AN  26140.79248115  .00008593  00000+0  16689-3 0  9991
2 48915  97.6995 325.9722 0006661  95.5409 264.6600 15.47885849272751
FARADAY_PHOENIX         
1 48924U 21059AX  26140.32349725  .00079906  00000+0  61590-3 0  9996
2 48924  97.6849 335.4046 0004550  87.9209 272.2574 15.71717841273278
DEMO8 (TENZING)         
1 48951U 21059CA  26140.04513606  .00015564  00000+0  24341-3 0  9999
2 48951  97.7035 331.3459 0008353  91.1397 269.0813 15.53833180272936
NAPA-2                  
1 48963U 21059CN  26140.68067973  .00136635  00000+0  52678-3 0  9990
2 48963  97.6762 336.1851 0001410 115.7214 244.4202 15.86944486273435
FENGYUN 3E              
1 49008U 21062A   26141.00143311 -.00000111  00000+0 -31760-4 0  9994
2 49008  98.7496 144.7132 0002178 133.0775 227.0584 14.19900880252728
ISS (NAUKA)             
1 49044U 21066A   26140.84258920  .00005401  00000+0  10507-3 0  9992
2 49044  51.6329  75.4677 0007532  80.3085 279.8754 15.49287262567248
STARLINK-3100           
1 49144U 21082Q   26140.86896664  .00000290  00000+0  32103-4 0  9994
2 49144  69.9995 112.4580 0003165 270.9589  89.1207 14.98335234256795
CUTE                    
1 49263U 21088D   26140.70049003  .00129784  00000+0  68941-3 0  9990
2 49263  97.4192 237.5870 0002647 266.6329  93.4636 15.80127451258193
2021-091B               
1 49316U 21091B   26140.97616698  .00002431  00000+0  12125-3 0  9994
2 49316  97.4476 328.9681 0014530 130.7909 229.4588 15.18399386254856
SDGSAT 1                
1 49387U 21100A   26140.97391745  .00001733  00000+0  83996-4 0  9995
2 49387  97.2650 188.9313 0009102  38.9977 321.1913 15.19770727251789
TEIKYOSAT-4 (OORURI)    
1 49396U 21102B   26140.80876638  .00001109  00000+0  73067-4 0  9993
2 49396  97.3690 171.3561 0012913  34.6245 325.5823 15.09398238248595
Z-SAT                   
1 49399U 21102E   26140.97649277  .00003533  00000+0  17633-3 0  9990
2 49399  97.3338 177.1271 0016076 348.6235  11.4634 15.18033493249311
HIBARI                  
1 49400U 21102F   26140.88953664  .00007340  00000+0  24641-3 0  9998
2 49400  97.3252 187.1135 0009778 301.1555  58.8726 15.31115914250019
KOSEN-1                 
1 49402U 21102H   26140.54669080  .00004920  00000+0  19142-3 0  9990
2 49402  97.3202 183.2465 0012110 309.6347  50.3822 15.26409615249802
GLOBAL-14               
1 49469U 21106A   26140.56993871  .00017645  00000+0  31958-3 0  9994
2 49469  42.0043  95.0276 0015836 197.9266 162.1021 15.49144189253840
GAOFEN-3 02             
1 49495U 21109A   26140.99148390 -.00000197  00000+0 -46506-4 0  9993
2 49495  98.4093 149.4745 0004016  76.9423 283.2215 14.42212256236397
GLOBAL-12               
1 49772U 21115BA  26140.33134693  .00018078  00000+0  30288-3 0  9991
2 49772  53.1937 178.3010 0002979 357.7783   2.3213 15.51942834251579
GLOBAL-13               
1 49773U 21115BB  26140.82989206  .00010962  00000+0  23756-3 0  9990
2 49773  53.1956 184.5275 0003928  43.5558 316.5759 15.44981052251536
GLOBAL-17               
1 49949U 21120A   26140.60167698  .00019936  00000+0  34078-3 0  9999
2 49949  41.9940 213.4834 0011903  56.5788 303.6193 15.50776076250615
GLOBAL-16               
1 49950U 21120B   26140.90176021  .00016896  00000+0  31031-3 0  9992
2 49950  41.9941 214.9395 0010074  47.8622 312.3076 15.48851924250614
XW-3 (CAS-9)            
1 50466U 21131B   26140.98085666  .00000240  00000+0  87820-4 0  9994
2 50466  98.4968 233.5196 0004385 163.2460 196.8875 14.41327790231196
