OBJECT_NAME,OBJECT_ID,EPOCH,MEAN_MOTION,ECCENTRICITY,INCLINATION,RA_OF_ASC_NODE,ARG_OF_PERICENTER,MEAN_ANOMALY,EPHEMERIS_TYPE,CLASSIFICATION_TYPE,NORAD_CAT_ID,ELEMENT_SET_NO,REV_AT_EPOCH,BSTAR,MEAN_MOTION_DOT,MEAN_MOTION_DDOT
TYVAK-182A,2021-034D,2026-05-20T22:57:06.168096,15.05876156,.00076016,97.5739,200.3502,72.3512,287.8545,0,U,48271,999,27573,.23508711E-3,.3355E-4,0
CSS (TIANHE),2021-035A,2026-05-20T20:06:05.431968,15.60706340,.00074086,41.4676,128.3095,269.1173,90.8817,0,U,48274,999,28889,.14070295E-3,.11714E-3,0
TYVAK-0130,2021-041BF,2026-05-20T07:12:48.175776,15.27141551,.0011443,52.9946,155.5509,81.5372,278.6922,0,U,48606,999,27612,.17318202E-3,.4328E-4,0
HAIYANG-2D,2021-043A,2026-05-20T23:09:41.616000,13.83372728,.00113804,66.0002,12.4752,272.3250,87.6515,0,U,48621,999,25278,-.11749117E-3,-.211E-5,0
2021-050D,2021-050D,2026-05-20T22:35:15.893952,15.23021635,.00057279,97.3338,217.6020,18.6938,341.4508,0,U,48843,999,27481,.12967431E-3,.2982E-4,0
TYVAK-0173,2021-059P,2026-05-20T12:16:59.443104,14.81783987,.00109025,96.0086,223.7487,118.8522,241.3792,0,U,48892,999,26414,.14212757E-3,.1091E-4,0
MANDRAKE 2 ABLE,2021-059AE,2026-05-20T11:48:49.016736,15.53776475,.00062725,97.7044,328.1899,95.5013,264.6956,0,U,48907,999,27282,.24806063E-3,.15822E-3,0
MANDRAKE 2 BAKER,2021-059AF,2026-05-20T07:25:53.524128,15.58037691,.00048786,97.7017,330.6776,95.5596,264.6216,0,U,48908,999,27295,.27259105E-3,.20365E-3,0
PACE-1,2021-059AG,2026-05-20T19:32:37.750848,15.75299746,.00024487,97.6789,335.9666,81.4165,278.7376,0,U,48909,999,27348,.3736411E-3,.56239E-3,0
YAM-3,2021-059AN,2026-05-20T19:01:10.371360,15.47885849,.00066614,97.6995,325.9722,95.5409,264.6600,0,U,48915,999,27275,.16688749E-3,.8593E-4,0
FARADAY_PHOENIX,2021-059AX,2026-05-20T07:45:50.162400,15.71717841,.00045502,97.6849,335.4046,87.9209,272.2574,0,U,48924,999,27327,.61590131E-3,.79906E-3,0
DEMO8 (TENZING),2021-059CA,2026-05-20T01:04:59.755584,15.53833180,.0008353,97.7035,331.3459,91.1397,269.0813,0,U,48951,999,27293,.24340712E-3,.15564E-3,0
NAPA-2,2021-059CN,2026-05-20T16:20:10.728672,15.86944486,.000141,97.6762,336.1851,115.7214,244.4202,0,U,48963,999,27343,.52677653E-3,.136635E-2,0
FENGYUN 3E,2021-062A,2026-05-21T00:02:03.820704,14.19900880,.00021788,98.7496,144.7132,133.0775,227.0584,0,U,49008,999,25272,-.31759778E-4,-.111E-5,0
ISS (NAUKA),2021-066A,2026-05-20T20:13:19.706880,15.49287262,.00075322,51.6329,75.4677,80.3085,279.8754,0,U,49044,999,56724,.10506669E-3,.5401E-4,0
STARLINK-3100,2021-082Q,2026-05-20T20:51:18.717696,14.98335234,.00031658,69.9995,112.4580,270.9589,89.1207,0,U,49144,999,25679,.32103274E-4,.29E-5,0
CUTE,2021-088D,2026-05-20T16:48:42.338592,15.80127451,.00026474,97.4192,237.5870,266.6329,93.4636,0,U,49263,999,25819,.68941229E-3,.129784E-2,0
2021-091B,2021-091B,2026-05-20T23:25:40.827072,15.18399386,.00145308,97.4476,328.9681,130.7909,229.4588,0,U,49316,999,25485,.121246E-3,.2431E-4,0
SDGSAT 1,2021-100A,2026-05-20T23:22:26.467680,15.19770727,.00091024,97.2650,188.9313,38.9977,321.1913,0,U,49387,999,25178,.83995602E-4,.1733E-4,0
TEIKYOSAT-4 (OORURI),2021-102B,2026-05-20T19:24:37.415232,15.09398238,.00129133,97.3690,171.3561,34.6245,325.5823,0,U,49396,999,24859,.73067464E-4,.1109E-4,0
Z-SAT,2021-102E,2026-05-20T23:26:08.975328,15.18033493,.00160764,97.3338,177.1271,348.6235,11.4634,0,U,49399,999,24931,.17632672E-3,.3533E-4,0
HIBARI,2021-102F,2026-05-20T21:20:55.965696,15.31115914,.00097789,97.3252,187.1135,301.1555,58.8726,0,U,49400,999,25001,.24640811E-3,.734E-4,0
KOSEN-1,2021-102H,2026-05-20T13:07:14.085120,15.26409615,.00121101,97.3202,183.2465,309.6347,50.3822,0,U,49402,999,24980,.19141689E-3,.492E-4,0
GLOBAL-14,2021-106A,2026-05-20T13:40:42.704544,15.49144189,.00158363,42.0043,95.0276,197.9266,162.1021,0,U,49469,999,25384,.31957616E-3,.17645E-3,0
GAOFEN-3 02,2021-109A,2026-05-20T23:47:44.208960,14.42212256,.0004016,98.4093,149.4745,76.9423,283.2215,0,U,49495,999,23639,-.46505869E-4,-.197E-5,0
GLOBAL-12,2021-115BA,2026-05-20T07:57:08.374752,15.51942834,.00029798,53.1937,178.3010,357.7783,2.3213,0,U,49772,999,25157,.30288027E-3,.18078E-3,0
GLOBAL-13,2021-115BB,2026-05-20T19:55:02.673984,15.44981052,.0003928,53.1956,184.5275,43.5558,316.5759,0,U,49773,999,25153,.23755637E-3,.10962E-3,0
GLOBAL-17,2021-120A,2026-05-20T14:26:24.891072,15.50776076,.0011903,41.9940,213.4834,56.5788,303.6193,0,U,49949,999,25061,.34078198E-3,.19936E-3,0
GLOBAL-16,2021-120B,2026-05-20T21:38:32.082144,15.48851924,.00100741,41.9941,214.9395,47.8622,312.3076,0,U,49950,999,25061,.31031478E-3,.16896E-3,0
XW-3 (CAS-9),2021-131B,2026-05-20T23:32:26.015424,14.41327790,.00043857,98.4968,233.5196,163.2460,196.8875,0,U,50466,999,23119,.87820235E-4,.24E-5,0
